{
    "links": {
        "self": "http://www.neowsapp.com/rest/v1/neo/3486468?api_key=iIulBulltgU6a56xZRHN4H3l9WmuAYTsLGpBGhQ2"
    },
    "id": "3486468",
    "neo_reference_id": "3486468",
    "name": "(2010 BU2)",
    "designation": "2010 BU2",
    "nasa_jpl_url": "http://ssd.jpl.nasa.gov/sbdb.cgi?sstr=3486468",
    "absolute_magnitude_h": 24.5,
    "estimated_diameter": {
        "kilometers": {
            "estimated_diameter_min": 0.0334622374,
            "estimated_diameter_max": 0.0748238376
        },
        "meters": {
            "estimated_diameter_min": 33.4622374455,
            "estimated_diameter_max": 74.8238376074
        },
        "miles": {
            "estimated_diameter_min": 0.0207924639,
            "estimated_diameter_max": 0.0464933628
        },
        "feet": {
            "estimated_diameter_min": 109.7842471007,
            "estimated_diameter_max": 245.4850393757
        }
    },
    "is_potentially_hazardous_asteroid": false,
    "close_approach_data": [
        {
            "close_approach_date": "1997-02-08",
            "close_approach_date_full": "1997-Feb-08 19:47",
            "epoch_date_close_approach": 855431220000,
            "relative_velocity": {
                "kilometers_per_second": "5.455695508",
                "kilometers_per_hour": "19640.5038288526",
                "miles_per_hour": "12203.8452818779"
            },
            "miss_distance": {
                "astronomical": "1.964060747",
                "lunar": "764.019630583",
                "kilometers": "293819304.30180889",
                "miles": "182570849.770347082"
            },
            "orbiting_body": "Juptr"
        },
        {
            "close_approach_date": "2010-01-27",
            "close_approach_date_full": "2010-Jan-27 09:12",
            "epoch_date_close_approach": 1264583520000,
            "relative_velocity": {
                "kilometers_per_second": "7.884604502",
                "kilometers_per_hour": "28384.5762073296",
                "miles_per_hour": "17637.0718106044"
            },
            "miss_distance": {
                "astronomical": "0.0167454718",
                "lunar": "6.5139885302",
                "kilometers": "2505086.913425066",
                "miles": "1556588.8280192708"
            },
            "orbiting_body": "Earth"
        }
    ],
    "orbital_data": {
        "orbit_id": "16",
        "orbit_determination_date": "2017-04-06 08:58:32",
        "first_observation_date": "2010-01-21",
        "last_observation_date": "2010-02-19",
        "data_arc_in_days": 29,
        "observations_used": 83,
        "orbit_uncertainty": "7",
        "minimum_orbit_intersection": ".0118802",
        "jupiter_tisserand_invariant": "3.267",
        "epoch_osculation": "2459000.5",
        "eccentricity": ".5863360618063395",
        "semi_major_axis": "2.400272466952661",
        "inclination": "3.164957007130437",
        "ascending_node_longitude": "123.7091207358758",
        "orbital_period": "1358.279800086809",
        "perihelion_distance": ".9929061614174505",
        "perihelion_argument": "13.21166946290189",
        "aphelion_distance": "3.80763877248787",
        "perihelion_time": "2459307.830221316160",
        "mean_anomaly": "278.5448538167565",
        "mean_motion": ".2650411203766648",
        "equinox": "J2000",
        "orbit_class": {
            "orbit_class_type": "APO",
            "orbit_class_description": "Near-Earth asteroid orbits which cross the Earth’s orbit similar to that of 1862 Apollo",
            "orbit_class_range": "a (semi-major axis) > 1.0 AU; q (perihelion) < 1.017 AU"
        }
    },
    "is_sentry_object": false
}